NORAD_CAT_ID,OBJECT_NAME,OBJECT_TYPE,EPOCH,MEAN_MOTION,ECCENTRICITY,INCLINATION,RA_OF_ASC_NODE,ARG_OF_PERICENTER,MEAN_ANOMALY,BSTAR,MEAN_MOTION_DOT,MEAN_MOTION_DDOT,TLE_LINE0,TLE_LINE1,TLE_LINE2,SEMIMAJOR_AXIS,PERIOD,APOGEE,PERIGEE,DECAYED
54063.0,STARLINK-5225,PAYLOAD,2023-12-02 16:19:28,15.08866389,0.00014,53.2164,101.1312,78.8275,281.2875,0.00059058,9.13e-05,0.0,0 STARLINK-5225,1 54063U 22136N   23336.68018647  .00009130  00000-0  59058-3 0  9992,2 54063  53.2164 101.1312 0001400  78.8275 281.2875 15.08866389 62322,6917.8,95.436,540.633,538.696,0.0
54063.0,STARLINK-5225,PAYLOAD,2023-12-03 14:34:53,15.08831058,0.0001296,53.217,96.9696,96.7395,263.3745,-0.00018409,-3.216e-05,0.0,0 STARLINK-5225,1 54063U 22136N   23337.60755958 -.00003216  00000-0 -18409-3 0  9994,2 54063  53.2170  96.9696 0001296  96.7395 263.3745 15.08831058 61983,6917.908,95.438,540.669,538.876,0.0
54063.0,STARLINK-5225,PAYLOAD,2023-12-04 12:50:17,15.08842778,0.0001298,53.2168,92.8078,85.7123,274.4018,0.00021013,3.058e-05,0.0,0 STARLINK-5225,1 54063U 22136N   23338.53492322  .00003058  00000-0  21013-3 0  9997,2 54063  53.2168  92.8078 0001298  85.7123 274.4018 15.08842778 62122,6917.872,95.437,540.635,538.839,0.0
54063.0,STARLINK-5225,PAYLOAD,2023-12-05 12:41:04,15.08846315,0.0001341,53.2183,88.3515,96.8412,263.2733,0.00039026,5.93e-05,0.0,0 STARLINK-5225,1 54063U 22136N   23339.52852593  .00005930  00000-0  39026-3 0  9991,2 54063  53.2183  88.3515 0001341  96.8412 263.2733 15.08846315 62275,6917.861,95.437,540.654,538.798,0.0
54063.0,STARLINK-5225,PAYLOAD,2023-12-05 17:27:13,15.08854927,0.0001342,53.2177,87.4556,100.0273,260.0871,0.00050315,7.732e-05,0.0,0 STARLINK-5225,1 54063U 22136N   23339.72724200  .00007732  00000-0  50315-3 0  9992,2 54063  53.2177  87.4556 0001342 100.0273 260.0871 15.08854927 62789,6917.835,95.437,540.628,538.771,0.0
54063.0,STARLINK-5225,PAYLOAD,2023-12-06 10:56:28,15.08835131,0.0001698,53.2173,84.1757,113.2523,246.8649,0.00012562,1.712e-05,0.0,0 STARLINK-5225,1 54063U 22136N   23340.45588817  .00001712  00000-0  12562-3 0  9990,2 54063  53.2173  84.1757 0001698 113.2523 246.8649 15.08835131 62893,6917.895,95.438,540.935,538.586,0.0
54063.0,STARLINK-5225,PAYLOAD,2023-12-06 12:31:52,15.08823194,0.0001763,53.2173,83.8785,109.9665,250.1517,0.00057172,8.818e-05,0.0,0 STARLINK-5225,1 54063U 22136N   23340.52213582  .00008818  00000-0  57172-3 0  9992,2 54063  53.2173  83.8785 0001763 109.9665 250.1517 15.08823194 62429,6917.932,95.439,541.016,538.577,0.0
54063.0,STARLINK-5225,PAYLOAD,2023-12-07 12:22:38,15.08841619,0.0001438,53.2177,79.4244,102.3018,257.8135,4.0544e-05,3.57e-06,0.0,0 STARLINK-5225,1 54063U 22136N   23341.51572760  .00000357  00000-0  40544-4 0  9994,2 54063  53.2177  79.4244 0001438 102.3018 257.8135 15.08841619 63054,6917.875,95.437,540.735,538.746,0.0
54063.0,STARLINK-5225,PAYLOAD,2023-12-08 12:13:26,15.08841176,0.0001413,53.2175,74.9642,92.3103,267.8051,0.00014026,1.945e-05,0.0,0 STARLINK-5225,1 54063U 22136N   23342.50932927  .00001945  00000-0  14026-3 0  9998,2 54063  53.2175  74.9642 0001413  92.3103 267.8051 15.08841176 62729,6917.877,95.437,540.719,538.764,0.0
54063.0,STARLINK-5225,PAYLOAD,2023-12-09 12:04:13,15.08841597,0.0001443,53.2183,70.5037,89.4729,270.6428,8.5509e-05,1.073e-05,0.0,0 STARLINK-5225,1 54063U 22136N   23343.50293222  .00001073  00000-0  85509-4 0  9994,2 54063  53.2183  70.5037 0001443  89.4729 270.6428 15.08841597 63359,6917.876,95.437,540.739,538.742,0.0
54063.0,STARLINK-5225,PAYLOAD,2023-12-09 15:14:59,15.08843524,0.0001522,53.2188,69.9087,99.1643,260.9522,8.9941e-05,1.144e-05,0.0,0 STARLINK-5225,1 54063U 22136N   23343.63540994  .00001144  00000-0  89941-4 0  9992,2 54063  53.2188  69.9087 0001522  99.1643 260.9522 15.08843524 62899,6917.87,95.437,540.788,538.682,0.0
54063.0,STARLINK-5225,PAYLOAD,2023-12-10 11:55:00,15.08837437,0.000185,53.2199,66.0436,120.1623,239.9553,3.9572e-05,3.42e-06,0.0,0 STARLINK-5225,1 54063U 22136N   23344.49653446  .00000342  00000-0  39572-4 0  9998,2 54063  53.2199  66.0436 0001850 120.1623 239.9553 15.08837437 63026,6917.888,95.438,541.033,538.473,0.0
54063.0,STARLINK-5225,PAYLOAD,2023-12-11 11:45:47,15.08844871,0.0001829,53.2203,61.5832,118.2296,241.8881,0.00011398,1.527e-05,0.0,0 STARLINK-5225,1 54063U 22136N   23345.49012788  .00001527  00000-0  11398-3 0  9998,2 54063  53.2203  61.5832 0001829 118.2296 241.8881 15.08844871 63657,6917.866,95.437,540.996,538.465,0.0
54063.0,STARLINK-5225,PAYLOAD,2023-12-12 11:36:34,15.08841703,0.0001493,53.2195,57.1231,92.7509,267.3654,7.8408e-05,9.6e-06,0.0,0 STARLINK-5225,1 54063U 22136N   23346.48373243  .00000960  00000-0  78408-4 0  9990,2 54063  53.2195  57.1231 0001493  92.7509 267.3654 15.08841703 63800,6917.875,95.437,540.773,538.707,0.0
54063.0,STARLINK-5225,PAYLOAD,2023-12-13 11:27:21,15.08841953,0.0001538,53.2198,52.666,101.8186,258.2979,3.2577e-05,2.31e-06,0.0,0 STARLINK-5225,1 54063U 22136N   23347.47733208  .00000231  00000-0  32577-4 0  9999,2 54063  53.2198  52.6660 0001538 101.8186 258.2979 15.08841953 63471,6917.874,95.437,540.803,538.675,0.0
54063.0,STARLINK-5225,PAYLOAD,2023-12-14 11:18:08,15.08842102,0.0001448,53.2192,48.2027,103.2568,256.8586,5.2759e-05,5.52e-06,0.0,0 STARLINK-5225,1 54063U 22136N   23348.47093134  .00000552  00000-0  52759-4 0  9997,2 54063  53.2192  48.2027 0001448 103.2568 256.8586 15.08842102 64109,6917.874,95.437,540.741,538.737,0.0
54063.0,STARLINK-5225,PAYLOAD,2023-12-15 11:08:56,15.08835825,0.0001331,53.2195,43.7397,100.3231,259.7911,-2.4972e-06,-3.28e-06,0.0,0 STARLINK-5225,1 54063U 22136N   23349.46454102 -.00000328  00000-0 -24972-5 0  9993,2 54063  53.2195  43.7397 0001331 100.3231 259.7911 15.08835825 64252,6917.893,95.438,540.679,538.837,0.0
54063.0,STARLINK-5225,PAYLOAD,2023-12-16 10:59:43,15.08854841,0.0001636,53.2203,39.2784,93.2987,266.8192,-0.00011482,-2.116e-05,0.0,0 STARLINK-5225,1 54063U 22136N   23350.45813685 -.00002116  00000-0 -11482-3 0  9996,2 54063  53.2203  39.2784 0001636  93.2987 266.8192 15.08854841 64404,6917.835,95.437,540.832,538.568,0.0
54063.0,STARLINK-5225,PAYLOAD,2023-12-17 10:50:30,15.08838793,0.0002206,53.2209,34.8183,45.452,314.6652,0.00019656,2.841e-05,0.0,0 STARLINK-5225,1 54063U 22136N   23351.45174393  .00002841  00000-0  19656-3 0  9997,2 54063  53.2209  34.8183 0002206  45.4520 314.6652 15.08838793 64557,6917.884,95.438,541.275,538.223,0.0
54063.0,STARLINK-5225,PAYLOAD,2023-12-18 09:05:53,15.08854119,0.0002121,53.219,30.6584,59.3936,300.7265,0.00021903,3.201e-05,0.0,0 STARLINK-5225,1 54063U 22136N   23352.37909514  .00003201  00000-0  21903-3 0  9999,2 54063  53.2190  30.6584 0002121  59.3936 300.7265 15.08854119 64697,6917.837,95.437,541.17,538.235,0.0
54063.0,STARLINK-5225,PAYLOAD,2023-12-19 08:56:41,15.08839479,0.0001422,53.2181,26.2,106.3571,253.7577,-3.8307e-05,-8.98e-06,0.0,0 STARLINK-5225,1 54063U 22136N   23353.37269953 -.00000898  00000-0 -38307-4 0  9994,2 54063  53.2181  26.2000 0001422 106.3571 253.7577 15.08839479 64844,6917.882,95.438,540.731,538.763,0.0
54063.0,STARLINK-5225,PAYLOAD,2023-12-20 08:47:28,15.08840164,0.0001476,53.2187,21.733,99.4885,260.6274,2.1667e-05,5.7e-07,0.0,0 STARLINK-5225,1 54063U 22136N   23354.36630213  .00000057  00000-0  21667-4 0  9991,2 54063  53.2187  21.7330 0001476  99.4885 260.6274 15.08840164 64513,6917.88,95.438,540.766,538.724,0.0
54063.0,STARLINK-5225,PAYLOAD,2023-12-21 07:02:52,15.08847477,0.0001391,53.2185,17.5733,85.9561,274.159,0.00031916,4.796e-05,0.0,0 STARLINK-5225,1 54063U 22136N   23355.29366039  .00004796  00000-0  31916-3 0  9997,2 54063  53.2185  17.5733 0001391  85.9561 274.1590 15.08847477 65132,6917.858,95.437,540.685,538.76,0.0
54063.0,STARLINK-5225,PAYLOAD,2023-12-21 22:56:43,15.08836933,0.0001382,53.2179,14.601,78.6198,281.4949,0.00028107,4.188e-05,0.0,0 STARLINK-5225,1 54063U 22136N   23355.95606380  .00004188  00000-0  28107-3 0  9999,2 54063  53.2179  14.6010 0001382  78.6198 281.4949 15.08836933 65231,6917.89,95.438,540.711,538.799,0.0
54063.0,STARLINK-5225,PAYLOAD,2023-12-22 08:29:03,15.08835507,0.0001565,53.219,12.8197,104.7018,255.4147,7.4678e-06,-1.69e-06,0.0,0 STARLINK-5225,1 54063U 22136N   23356.35350918 -.00000169  00000-0  74678-5 0  9999,2 54063  53.2190  12.8197 0001565 104.7018 255.4147 15.08835507 64815,6917.894,95.438,540.842,538.676,0.0
54063.0,STARLINK-5225,PAYLOAD,2023-12-23 09:55:12,15.08847624,0.0001922,53.2172,8.0547,117.2811,242.8377,1.9461e-06,-2.57e-06,0.0,0 STARLINK-5225,1 54063U 22136N   23357.41334012 -.00000257  00000-0  19461-5 0  9991,2 54063  53.2172   8.0547 0001922 117.2811 242.8377 15.08847624 65457,6917.857,95.437,541.052,538.392,0.0
54063.0,STARLINK-5225,PAYLOAD,2023-12-24 00:13:41,15.08829936,0.0001768,53.2174,5.381,95.2339,264.8855,8.3354e-05,1.038e-05,0.0,0 STARLINK-5225,1 54063U 22136N   23358.00951345  .00001038  00000-0  83354-4 0  9999,2 54063  53.2174   5.3810 0001768  95.2339 264.8855 15.08829936 65541,6917.911,95.438,540.999,538.553,0.0
54063.0,STARLINK-5225,PAYLOAD,2023-12-24 09:46:00,15.08847417,0.0001798,53.2173,3.5976,99.125,260.9945,0.00032427,4.877e-05,0.0,0 STARLINK-5225,1 54063U 22136N   23358.40694590  .00004877  00000-0  32427-3 0  9997,2 54063  53.2173   3.5976 0001798  99.1250 260.9945 15.08847417 65609,6917.858,95.437,540.967,538.479,0.0
54063.0,STARLINK-5225,PAYLOAD,2023-12-25 00:04:28,15.08840962,0.0001975,53.2172,0.9185,127.463,232.6542,0.00013066,1.792e-05,0.0,0 STARLINK-5225,1 54063U 22136N   23359.00310799  .00001792  00000-0  13066-3 0  9991,2 54063  53.2172   0.9185 0001975 127.4630 232.6542 15.08840962 65691,6917.877,95.437,541.109,538.376,0.0
54063.0,STARLINK-5225,PAYLOAD,2023-12-25 08:01:24,15.08848245,0.0001686,53.2172,359.4346,98.8326,261.2857,0.00026789,3.979e-05,0.0,0 STARLINK-5225,1 54063U 22136N   23359.33430666  .00003979  00000-0  26789-3 0  9998,2 54063  53.2172 359.4346 0001686  98.8326 261.2857 15.08848245 65266,6917.855,95.437,540.887,538.554,0.0
